[{"OBJECT_NAME":"STARLINK-4409","OBJECT_ID":"2022-084Q","EPOCH":"2026-03-09T17:05:49.195680","MEAN_MOTION":15.05646193,"ECCENTRICITY":7.741e-5,"INCLINATION":97.6037,"RA_OF_ASC_NODE":131.2454,"ARG_OF_PERICENTER":138.4317,"MEAN_ANOMALY":221.6969,"EPHEMERIS_TYPE":0,"CLASSIFICATION_TYPE":"U","NORAD_CAT_ID":53203,"ELEMENT_SET_NO":999,"REV_AT_EPOCH":19938,"BSTAR":3.97646e-7,"MEAN_MOTION_DOT":-5.5e-7,"MEAN_MOTION_DDOT":0},{"OBJECT_NAME":"IRIDIUM 33 DEB","OBJECT_ID":"1997-051ACD","EPOCH":"2026-02-15T04:06:14.442336","MEAN_MOTION":15.0282309,"ECCENTRICITY":0.00183243,"INCLINATION":86.3384,"RA_OF_ASC_NODE":302.6959,"ARG_OF_PERICENTER":121.5358,"MEAN_ANOMALY":29.3036,"EPHEMERIS_TYPE":0,"CLASSIFICATION_TYPE":"U","NORAD_CAT_ID":46971,"ELEMENT_SET_NO":999,"REV_AT_EPOCH":65196,"BSTAR":0.0024316654,"MEAN_MOTION_DOT":0.00032805,"MEAN_MOTION_DDOT":0}]
